IRIDIUM 155             
1 43573U 18061E   19247.42170620  .00000072  00000-0  18742-4 0  9998
2 43573  86.4006  12.1782 0002436 110.5259 249.6198 14.34217653 58229
IRIDIUM 154             
1 43574U 18061F   19247.47243285  .00000063  00000-0  15485-4 0  9993
2 43574  86.4010  12.1734 0001945  87.3566 272.7852 14.34215887 58274
IRIDIUM 163             
1 43575U 18061G   19247.45340799  .00000067  00000-0  16728-4 0  9995
2 43575  86.4007  12.1717 0002751  82.7740 277.3768 14.34216952 58249
IRIDIUM 156             
1 43576U 18061H   19247.42804764  .00000062  00000-0  15021-4 0  9990
2 43576  86.4008  12.1867 0002604  95.5521 264.5971 14.34217484 58226
IRIDIUM 164             
1 43577U 18061J   19247.40900924  .00000069  00000-0  17672-4 0  9995
2 43577  86.4009  12.1975 0002142  87.7032 272.4409 14.34218251 58277
IRIDIUM 159             
1 43578U 18061K   19247.44704910  .00000075  00000-0  19617-4 0  9995
2 43578  86.4006  12.1703 0002072  89.9435 270.1998 14.34219310 58249
IRIDIUM 180             
1 43922U 19002A   19247.51634101  .00000056  00000-0  12822-4 0  9996
2 43922  86.3972 308.9841 0002195  59.1271 301.0140 14.34217422 33906
IRIDIUM 176             
1 43923U 19002B   19247.26023964  .00000119  00000-0  15027-4 0  9998
2 43923  86.6107 309.1095 0002703  89.6105 270.5422 14.72252556 34670
IRIDIUM 168             
1 43924U 19002C   19247.50999502  .00000047  00000-0  96267-5 0  9992
2 43924  86.3974 308.9938 0002030  85.1752 274.9675 14.34217921 33846
IRIDIUM 173             
1 43925U 19002D   19247.28800004  .00000059  00000-0  13973-4 0  9991
2 43925  86.3971 309.0762 0002164  88.6712 271.4731 14.34218815 33807
IRIDIUM 169             
1 43926U 19002E   19247.32786616  .00000078  00000-0  19264-4 0  9999
2 43926  87.4073 333.2289 0002763 157.3032 202.8290 14.38627381 33983
IRIDIUM 172             
1 43927U 19002F   19247.28165503  .00000054  00000-0  12294-4 0  9991
2 43927  86.3971 309.0790 0002121  83.6340 276.5097 14.34217624 33803
IRIDIUM 175             
1 43928U 19002G   19247.32200669  .00000117  00000-0  14627-4 0  9992
2 43928  86.6090 309.0320 0002641 116.1000 244.0489 14.72248233 34673
IRIDIUM 171             
1 43929U 19002H   19247.26262378  .00000030  00000-0  35096-5 0  9999
2 43929  86.3980 309.1180 0002015  87.5961 272.5465 14.34215718 33798
IRIDIUM 170             
1 43930U 19002J   19247.26641137  .00000114  00000-0  14177-4 0  9994
2 43930  86.6107 309.1144 0002795  96.9094 263.2441 14.72252461 34688
IRIDIUM 167             
1 43931U 19002K   19247.25627564  .00000054  00000-0  12053-4 0  9996
2 43931  86.3972 309.0902 0002059  61.8967 298.2437 14.34219366 33799
